*******************************************************************************
JPL/HORIZONS                 139 Juewa (A874 TA)           2020-Jun-20 08:19:34
Rec #:     139 (+COV) Soln.date: 2020-May-20_00:59:42   # obs: 2561 (1895-2020)
 
IAU76/J2000 helio. ecliptic osc. elements (au, days, deg., period=Julian yrs):
 
  EPOCH=  2454557.5 ! 2008-Apr-01.00 (TDB)         Residual RMS= .29159
   EC= .1737029829659997   QR= 2.299527089716183   TP= 2453931.32849957
   OM= 1.890178843914257   W=  166.2895630056896   IN= 10.90215686608061
   A= 2.782930401915711    MA= 132.936381531341    ADIST= 3.266333714115238
   PER= 4.6426             N= .212300269           ANGMOM= .028260498
   DAN= 3.24688            DDN= 2.30927            L= 168.418095
   B= 2.5692718            MOID= 1.30736005        TP= 2006-Jul-14.8284995700
 
Asteroid physical parameters (km, seconds, rotational period in hours):
   GM= n.a.                RAD= 75.558             ROTPER= 20.991
   H= 8.                   G= .150                 B-V= .693
                           ALBEDO= .052            STYP= X
 
ASTEROID comments: 
1: soln ref.= JPL#103, OCC=0
2: source=ORB
*******************************************************************************
 
 
*******************************************************************************
Ephemeris / WWW_USER Sat Jun 20 08:19:34 2020 Pasadena, USA      / Horizons
*******************************************************************************
Target body name: 139 Juewa (A874 TA)             {source: JPL#103}
Center body name: Solar System Barycenter (0)     {source: DE431}
Center-site name: BODY CENTER
*******************************************************************************
Start time      : A.D. 1969-Jun-28 00:00:00.0000 TDB
Stop  time      : A.D. 2071-May-04 00:00:00.0000 TDB
Step-size       : 7200 minutes
*******************************************************************************
Center geodetic : 0.00000000,0.00000000,0.0000000 {E-lon(deg),Lat(deg),Alt(km)}
Center cylindric: 0.00000000,0.00000000,0.0000000 {E-lon(deg),Dxy(km),Dz(km)}
Center radii    : (undefined)                                                  
Small perturbers: Yes                             {source: SB431-N16}
Output units    : AU-D
Output type     : GEOMETRIC cartesian states
Output format   : 2 (position and velocity)
Reference frame : Ecliptic of J2000.0
*******************************************************************************
Initial IAU76/J2000 heliocentric ecliptic osculating elements (au, days, deg.):
  EPOCH=  2454557.5 ! 2008-Apr-01.00 (TDB)         Residual RMS= .29159        
   EC= .1737029829659997   QR= 2.299527089716183   TP= 2453931.32849957        
   OM= 1.890178843914257   W=  166.2895630056896   IN= 10.90215686608061       
  Equivalent ICRF heliocentric equatorial cartesian coordinates (au, au/d):
   X= 2.175053350727294E+00  Y=-1.873825967863272E+00  Z=-1.296379278168281E+00
  VX= 7.200150982526674E-03 VY= 4.525750817321889E-03 VZ= 3.036990483881692E-03
Asteroid physical parameters (km, seconds, rotational period in hours):        
   GM= n.a.                RAD= 75.558             ROTPER= 20.991              
   H= 8.                   G= .150                 B-V= .693                   
                           ALBEDO= .052            STYP= X                     
*******************************************************************************
            JDTDB,            Calendar Date (TDB),        delta-T,                      X,                      Y,                      Z,                     VX,                     VY,                     VZ,
******************************************************************************************************************************************************************************************************************
$$SOE
2450900.500000000, A.D. 1998-Mar-28 00:00:00.0000,      63.185650, -2.277832125692133E-01, -2.696296733086830E+00, -5.194906061006155E-01,  1.005480590614525E-02, -2.590354149476126E-03, -5.735349925208875E-04,
2450905.500000000, A.D. 1998-Apr-02 00:00:00.0000,      63.185664, -1.774733611977789E-01, -2.708773123131722E+00, -5.222667193191053E-01,  1.006852316528121E-02, -2.400371214773914E-03, -5.369384507374581E-04,
2450910.500000000, A.D. 1998-Apr-07 00:00:00.0000,      63.185665, -1.271040393540210E-01, -2.720302182931712E+00, -5.248602811322982E-01,  1.007860535211554E-02, -2.211430807953611E-03, -5.005162060223189E-04,
2450915.500000000, A.D. 1998-Apr-12 00:00:00.0000,      63.185652, -7.669325380635710E-02, -2.730889254235255E+00, -5.272721892261343E-01,  1.008511984885213E-02, -2.023584128129760E-03, -4.642786524338847E-04,
2450920.500000000, A.D. 1998-Apr-17 00:00:00.0000,      63.185627, -2.625867529937943E-02, -2.740539928193627E+00, -5.295033919780735E-01,  1.008813367067283E-02, -1.836879752244643E-03, -4.282356753026955E-04,
2450925.500000000, A.D. 1998-Apr-22 00:00:00.0000,      63.185591,  2.418235943377595E-02, -2.749260032473156E+00, -5.315548859549686E-01,  1.008771339581187E-02, -1.651363724130759E-03, -3.923966677945033E-04,
2450930.500000000, A.D. 1998-Apr-27 00:00:00.0000,      63.185545,  7.461284532401921E-02, -2.757055618809965E+00, -5.334277134931058E-01,  1.008392510144815E-02, -1.467079642422778E-03, -3.567705472127668E-04,
2450935.500000000, A.D. 1998-May-02 00:00:00.0000,      63.185487,  1.250161063126664E-01, -2.763932951001185E+00, -5.351229603591531E-01,  1.007683430529729E-02, -1.284068747231478E-03, -3.213657710692938E-04,
2450940.500000000, A.D. 1998-May-07 00:00:00.0000,      63.185418,  1.753757924196548E-01, -2.769898493326480E+00, -5.366417534910244E-01,  1.006650591272505E-02, -1.102370005606876E-03, -2.861903529927156E-04,
2450945.500000000, A.D. 1998-May-12 00:00:00.0000,      63.185337,  2.256758765605804E-01, -2.774958899394046E+00, -5.379852588180427E-01,  1.005300416910812E-02, -9.220201958808212E-04, -2.512518785512540E-04,
2450950.500000000, A.D. 1998-May-17 00:00:00.0000,      63.185246,  2.759006511378949E-01, -2.779121001405703E+00, -5.391546791601080E-01,  1.003639261706776E-02, -7.430539909688466E-04, -2.165575210345772E-04,
2450955.500000000, A.D. 1998-May-22 00:00:00.0000,      63.185148,  3.260347244295434E-01, -2.782391799835895E+00, -5.401512522056560E-01,  1.001673405813699E-02, -5.655040406223627E-04, -1.821140571805952E-04,
2450960.500000000, A.D. 1998-May-27 00:00:00.0000,      63.185043,  3.760630167961158E-01, -2.784778453519082E+00, -5.409762485679693E-01,  9.994090518433859E-03, -3.894010524949976E-04, -1.479278827748473E-04,
2450965.500000000, A.D. 1998-Jun-01 00:00:00.0000,      63.184930,  4.259707567256398E-01, -2.786288270139024E+00, -5.416309699189672E-01,  9.968523217994359E-03, -2.147738718018853E-04, -1.140050280244004E-04,
2450970.500000000, A.D. 1998-Jun-06 00:00:00.0000,      63.184809,  4.757434767336282E-01, -2.786928697112375E+00, -5.421167471991034E-01,  9.940092543502784E-03, -4.164955933884891E-05, -8.035117261479932E-05,
2450975.500000000, A.D. 1998-Jun-11 00:00:00.0000,      63.184682,  5.253670091348073E-01, -2.786707312857774E+00, -5.424349389015917E-01,  9.908858024198827E-03,  1.299465323743053E-04, -4.697166037075908E-05,
2450980.500000000, A.D. 1998-Jun-16 00:00:00.0000,      63.184549,  5.748274817019379E-01, -2.785631818440390E+00, -5.425869294287836E-01,  9.874878310786832E-03,  2.999906851134821E-04, -1.387151344568416E-05,
2450985.500000000, A.D. 1998-Jun-21 00:00:00.0000,      63.184415,  6.241113132265591E-01, -2.783710029580441E+00, -5.425741275182336E-01,  9.838211157298772E-03,  4.684607433418792E-04,  1.894455399163827E-05,
2450990.500000000, A.D. 1998-Jun-26 00:00:00.0000,      63.184279,  6.732052089964573E-01, -2.780949869014055E+00, -5.423979647360470E-01,  9.798913405911540E-03,  6.353360448432154E-04,  5.147212251575896E-05,
2450995.500000000, A.D. 1998-Jul-01 00:00:00.0000,      63.184140,  7.220961562043012E-01, -2.777359359195928E+00, -5.420598940354663E-01,  9.757040974554085E-03,  8.005973533345053E-04,  8.370705458423393E-05,
2451000.500000000, A.D. 1998-Jul-06 00:00:00.0000,      63.183998,  7.707714193007411E-01, -2.772946615334095E+00, -5.415613883788194E-01,  9.712648847046153E-03,  9.642267930222324E-04,  1.156454820599639E-04,
2451005.500000000, A.D. 1998-Jul-11 00:00:00.0000,      63.183856,  8.192185353041207E-01, -2.767719838746896E+00, -5.409039394208528E-01,  9.665791065580206E-03,  1.126207785177673E-03,  1.472837941306831E-04,
2451010.500000000, A.D. 1998-Jul-16 00:00:00.0000,      63.183715,  8.674253090781751E-01, -2.761687310531963E+00, -5.400890562515026E-01,  9.616520725413514E-03,  1.286524986748462E-03,  1.786186256159248E-04,
2451015.500000000, A.D. 1998-Jul-21 00:00:00.0000,      63.183578,  9.153798085884469E-01, -2.754857385537152E+00, -5.391182641962051E-01,  9.564889971638799E-03,  1.445164230960904E-03,  2.096468456365570E-04,
2451020.500000000, A.D. 1998-Jul-26 00:00:00.0000,      63.183445,  9.630703601474327E-01, -2.747238486623619E+00, -5.379931036720077E-01,  9.510949997878703E-03,  1.602112469846892E-03,  2.403655466213842E-04,
2451025.500000000, A.D. 1998-Jul-31 00:00:00.0000,      63.183315,  1.010485543657650E+00, -2.738839099211562E+00, -5.367151290978431E-01,  9.454751046728950E-03,  1.757357718647117E-03,  2.707720336366937E-04,
2451030.500000000, A.D. 1998-Aug-05 00:00:00.0000,      63.183188,  1.057614187860929E+00, -2.729667766099289E+00, -5.352859078573458E-01,  9.396342411779689E-03,  1.910889002075552E-03,  3.008638140364732E-04,
2451035.500000000, A.D. 1998-Aug-10 00:00:00.0000,      63.183067,  1.104445365601463E+00, -2.719733082546308E+00, -5.337070193126209E-01,  9.335772441077774E-03,  2.062696302448209E-03,  3.306385874345713E-04,
